{
  "type": "FeatureCollection",
  "features": [
    {
      "type": "Feature",
      "properties": {
        "norad_id": 43581,
        "name": "BEIDOU-3 M5 (C23)",
        "group": "gnss",
        "lat": -12.134265757559367,
        "lon": 17.769748544058512,
        "alt_km": 21535.577878713273,
        "timestamp": "2025-12-08T05:48:09.278708+00:00",
        "meta_object_name": "BEIDOU-3 M5 (C23)",
        "meta_object_id": "2018-062A",
        "meta_epoch": "2025-12-07T09:56:06.121536",
        "meta_mean_motion": 1.86228654,
        "meta_eccentricity": 0.00021243,
        "meta_inclination": 54.089,
        "meta_ra_of_asc_node": 188.8244,
        "meta_arg_of_pericenter": 353.2088,
        "meta_mean_anomaly": 6.859,
        "meta_ephemeris_type": 0,
        "meta_classification_type": "U",
        "meta_norad_cat_id": 43581,
        "meta_element_set_no": 999,
        "meta_rev_at_epoch": 5006,
        "meta_bstar": 0,
        "meta_mean_motion_dot": 5.9e-07,
        "meta_mean_motion_ddot": 0,
        "tle_line1": "1 43581U 18062A   25341.41395974  .00000059  00000+0  00000+0 0  9997",
        "tle_line2": "2 43581  54.0890 188.8244 0002124 353.2088   6.8590  1.86228654 50063"
      },
      "geometry": {
        "type": "Point",
        "coordinates": [
          17.769748544058512,
          -12.134265757559367
        ]
      }
    },
    {
      "type": "Feature",
      "properties": {
        "norad_id": 43582,
        "name": "BEIDOU-3 M6 (C24)",
        "group": "gnss",
        "lat": -50.81422517977658,
        "lon": 126.01666813885515,
        "alt_km": 21544.415639269442,
        "timestamp": "2025-12-08T05:48:09.278721+00:00",
        "meta_object_name": "BEIDOU-3 M6 (C24)",
        "meta_object_id": "2018-062B",
        "meta_epoch": "2025-12-06T17:45:46.056960",
        "meta_mean_motion": 1.86229666,
        "meta_eccentricity": 0.00077578,
        "meta_inclination": 54.0886,
        "meta_ra_of_asc_node": 188.8365,
        "meta_arg_of_pericenter": 46.2295,
        "meta_mean_anomaly": 313.9106,
        "meta_ephemeris_type": 0,
        "meta_classification_type": "U",
        "meta_norad_cat_id": 43582,
        "meta_element_set_no": 999,
        "meta_rev_at_epoch": 5005,
        "meta_bstar": 0,
        "meta_mean_motion_dot": 6.8e-07,
        "meta_mean_motion_ddot": 0,
        "tle_line1": "1 43582U 18062B   25340.74011640  .00000068  00000+0  00000+0 0  9998",
        "tle_line2": "2 43582  54.0886 188.8365 0007757  46.2295 313.9106  1.86229666 50057"
      },
      "geometry": {
        "type": "Point",
        "coordinates": [
          126.01666813885515,
          -50.81422517977658
        ]
      }
    },
    {
      "type": "Feature",
      "properties": {
        "norad_id": 43602,
        "name": "BEIDOU-3 M12 (C26)",
        "group": "gnss",
        "lat": -25.069926500966723,
        "lon": 167.77242625304567,
        "alt_km": 21523.880537274963,
        "timestamp": "2025-12-08T05:48:09.278735+00:00",
        "meta_object_name": "BEIDOU-3 M12 (C26)",
        "meta_object_id": "2018-067A",
        "meta_epoch": "2025-12-07T05:09:21.328416",
        "meta_mean_motion": 1.86227676,
        "meta_eccentricity": 0.00091602,
        "meta_inclination": 54.1831,
        "meta_ra_of_asc_node": 187.5507,
        "meta_arg_of_pericenter": 40.7736,
        "meta_mean_anomaly": 319.3651,
        "meta_ephemeris_type": 0,
        "meta_classification_type": "U",
        "meta_norad_cat_id": 43602,
        "meta_element_set_no": 999,
        "meta_rev_at_epoch": 4954,
        "meta_bstar": 0,
        "meta_mean_motion_dot": 6.2e-07,
        "meta_mean_motion_ddot": 0,
        "tle_line1": "1 43602U 18067A   25341.21483019  .00000062  00000+0  00000+0 0  9996",
        "tle_line2": "2 43602  54.1831 187.5507 0009160  40.7736 319.3651  1.86227676 49540"
      },
      "geometry": {
        "type": "Point",
        "coordinates": [
          167.77242625304567,
          -25.069926500966723
        ]
      }
    },
    {
      "type": "Feature",
      "properties": {
        "norad_id": 43603,
        "name": "BEIDOU-3 M11 (C25)",
        "group": "gnss",
        "lat": -43.65804290467507,
        "lon": 51.067423299315074,
        "alt_km": 21547.97706233534,
        "timestamp": "2025-12-08T05:48:09.278746+00:00",
        "meta_object_name": "BEIDOU-3 M11 (C25)",
        "meta_object_id": "2018-067B",
        "meta_epoch": "2025-12-07T08:23:01.597056",
        "meta_mean_motion": 1.8622716,
        "meta_eccentricity": 0.00055888,
        "meta_inclination": 54.1804,
        "meta_ra_of_asc_node": 187.5103,
        "meta_arg_of_pericenter": 36.6021,
        "meta_mean_anomaly": 323.5051,
        "meta_ephemeris_type": 0,
        "meta_classification_type": "U",
        "meta_norad_cat_id": 43603,
        "meta_element_set_no": 999,
        "meta_rev_at_epoch": 4957,
        "meta_bstar": 0,
        "meta_mean_motion_dot": 6e-07,
        "meta_mean_motion_ddot": 0,
        "tle_line1": "1 43603U 18067B   25341.34932404  .00000060  00000+0  00000+0 0  9996",
        "tle_line2": "2 43603  54.1804 187.5103 0005588  36.6021 323.5051  1.86227160 49576"
      },
      "geometry": {
        "type": "Point",
        "coordinates": [
          51.067423299315074,
          -43.65804290467507
        ]
      }
    },
    {
      "type": "Feature",
      "properties": {
        "norad_id": 43622,
        "name": "BEIDOU-3 M13 (C32)",
        "group": "gnss",
        "lat": -56.38951587197226,
        "lon": -25.69747434519222,
        "alt_km": 21520.57045851497,
        "timestamp": "2025-12-08T05:48:09.278759+00:00",
        "meta_object_name": "BEIDOU-3 M13 (C32)",
        "meta_object_id": "2018-072A",
        "meta_epoch": "2025-12-03T13:07:53.541408",
        "meta_mean_motion": 1.86230692,
        "meta_eccentricity": 0.00056735,
        "meta_inclination": 56.4512,
        "meta_ra_of_asc_node": 69.1249,
        "meta_arg_of_pericenter": 298.6305,
        "meta_mean_anomaly": 61.3164,
        "meta_ephemeris_type": 0,
        "meta_classification_type": "U",
        "meta_norad_cat_id": 43622,
        "meta_element_set_no": 999,
        "meta_rev_at_epoch": 4901,
        "meta_bstar": 0,
        "meta_mean_motion_dot": -5e-07,
        "meta_mean_motion_ddot": 0,
        "tle_line1": "1 43622U 18072A   25337.54714747 -.00000050  00000+0  00000+0 0  9998",
        "tle_line2": "2 43622  56.4512  69.1249 0005673 298.6305  61.3164  1.86230692 49019"
      },
      "geometry": {
        "type": "Point",
        "coordinates": [
          -25.69747434519222,
          -56.38951587197226
        ]
      }
    },
    {
      "type": "Feature",
      "properties": {
        "norad_id": 43623,
        "name": "BEIDOU-3 M14 (C33)",
        "group": "gnss",
        "lat": -1.9367640053135082,
        "lon": 67.68962987256423,
        "alt_km": 21520.455250806015,
        "timestamp": "2025-12-08T05:48:09.278770+00:00",
        "meta_object_name": "BEIDOU-3 M14 (C33)",
        "meta_object_id": "2018-072B",
        "meta_epoch": "2025-12-07T04:06:42.144768",
        "meta_mean_motion": 1.86230742,
        "meta_eccentricity": 0.00032284,
        "meta_inclination": 56.456,
        "meta_ra_of_asc_node": 68.9987,
        "meta_arg_of_pericenter": 333.0096,
        "meta_mean_anomaly": 26.9917,
        "meta_ephemeris_type": 0,
        "meta_classification_type": "U",
        "meta_norad_cat_id": 43623,
        "meta_element_set_no": 999,
        "meta_rev_at_epoch": 4907,
        "meta_bstar": 0,
        "meta_mean_motion_dot": -4.5e-07,
        "meta_mean_motion_ddot": 0,
        "tle_line1": "1 43623U 18072B   25341.17132112 -.00000045  00000+0  00000+0 0  9997",
        "tle_line2": "2 43623  56.4560  68.9987 0003228 333.0096  26.9917  1.86230742 49079"
      },
      "geometry": {
        "type": "Point",
        "coordinates": [
          67.68962987256423,
          -1.9367640053135082
        ]
      }
    },
    {
      "type": "Feature",
      "properties": {
        "norad_id": 43647,
        "name": "BEIDOU-3 M16 (C35)",
        "group": "gnss",
        "lat": -50.46507899249788,
        "lon": -172.6949334091963,
        "alt_km": 21545.552984164267,
        "timestamp": "2025-12-08T05:48:09.278780+00:00",
        "meta_object_name": "BEIDOU-3 M16 (C35)",
        "meta_object_id": "2018-078A",
        "meta_epoch": "2025-12-07T07:54:04.576896",
        "meta_mean_motion": 1.86232109,
        "meta_eccentricity": 0.00071609,
        "meta_inclination": 54.2671,
        "meta_ra_of_asc_node": 306.7103,
        "meta_arg_of_pericenter": 19.0723,
        "meta_mean_anomaly": 340.9397,
        "meta_ephemeris_type": 0,
        "meta_classification_type": "U",
        "meta_norad_cat_id": 43647,
        "meta_element_set_no": 999,
        "meta_rev_at_epoch": 4858,
        "meta_bstar": 0,
        "meta_mean_motion_dot": -7e-07,
        "meta_mean_motion_ddot": 0,
        "tle_line1": "1 43647U 18078A   25341.32921964 -.00000070  00000+0  00000+0 0  9995",
        "tle_line2": "2 43647  54.2671 306.7103 0007160  19.0723 340.9397  1.86232109 48589"
      },
      "geometry": {
        "type": "Point",
        "coordinates": [
          -172.6949334091963,
          -50.46507899249788
        ]
      }
    }
  ]
}